"","Locality","Place_Name","District","Admin_Name_3","Dist_Adm3","loc_pl","Latitude","Longitude","Accuracy","Admin_Name_1","Admin_Name_2","select_rank"
"1","AGUAS NEGRAS","AGUAS NEGRAS","TAMBOPATA","TAMBOPATA",TRUE,TRUE,-12.6656,-69.4251,4,"""Madre De Dios""","""Tambopata""",1
"2","ALEGRIA","ALEGRIA","LAS PIEDRAS","LAS PIEDRAS",TRUE,TRUE,-12.1195,-69.1187,4,"""Madre De Dios""","""Tambopata""",1
"3","ARAZAIRE","ARAZAIRE","INAMBARI","INAMBARI",TRUE,TRUE,-13.0013,-70.3424,3,"""Madre De Dios""","""Tambopata""",1
"4","BAJO MADRE DE DIOS","BAJO MADRE DE DIOS","LAS PIEDRAS","LAS PIEDRAS",TRUE,TRUE,-12.599,-69.1338,4,"""Madre De Dios""","""Tambopata""",1
"5","BAJO PIEDRAS","BAJO PIEDRAS","LAS PIEDRAS","LAS PIEDRAS",TRUE,TRUE,-12.465,-69.2573,4,"""Madre De Dios""","""Tambopata""",1
"6","BAJO TAMBOPATA","BAJO TAMBOPATA","TAMBOPATA","TAMBOPATA",TRUE,TRUE,-12.6516,-69.2202,4,"""Madre De Dios""","""Tambopata""",1
"7","BELGICA","BELGICA","IÑAPARI","IÑAPARI",TRUE,TRUE,-10.973,-69.7314,3,"""Madre De Dios""","""Tahuamanu""",1
"8","CENTRO PIEDRAS","CENTRO DE PIEDRAS","LAS PIEDRAS","LAS PIEDRAS",TRUE,FALSE,-12.327,-69.1988,4,"""Madre De Dios""","""Tambopata""",2
"9","CHORRILLOS","CHORRILLOS","TAMBOPATA","TAMBOPATA",TRUE,TRUE,-12.606,-69.2852,4,"""Madre De Dios""","""Tambopata""",1
"10","DELTA 1","DELTA 1","MADRE DE DIOS","MADRE DE DIOS",TRUE,TRUE,-12.7748,-70.5217,3,"""Madre De Dios""","""Manu""",1
"11","DOS DE MAYO","DOS DE MAYO","INAMBARI","INAMBARI",TRUE,TRUE,-13.0686,-70.3544,3,"""Madre De Dios""","""Tambopata""",1
"12","EL CASTAÑAL","EL CASTAÑAL","TAMBOPATA","TAMBOPATA",TRUE,FALSE,-12.6342,-69.2607,4,"""Madre De Dios""","""Tambopata""",2
"13","GAMITANA","GAMITANA","TAMBOPATA","LAS PIEDRAS",FALSE,TRUE,-12.4267,-69.0946,4,"""Madre De Dios""","""Tambopata""",3
"14","GUACAMAYO","GUACAMAYO","MADRE DE DIOS","MADRE DE DIOS",TRUE,TRUE,-12.597,-70.253,3,"""Madre De Dios""","""Manu""",1
"15","IBERIA","IBERIA","IBERIA","IBERIA",TRUE,TRUE,-11.35,-69.5833,4,"""Madre De Dios""","""Tahuamanu""",1
"16","IÑAPARI","IÑAPARI","IÑAPARI","IÑAPARI",TRUE,FALSE,-10.95,-69.5833,3,"""Madre De Dios""","""Tahuamanu""",2
"17","JAYAVE","JAYAVE","INAMBARI","INAMBARI",TRUE,TRUE,-12.7809,-69.9632,3,"""Madre De Dios""","""Tambopata""",1
"18","LA PASTORA","LA PASTORA","TAMBOPATA","TAMBOPATA",TRUE,TRUE,-12.5774,-69.1907,4,"""Madre De Dios""","""Tambopata""",1
"19","LA TORRE","LA TORRE","TAMBOPATA","TAMBOPATA",TRUE,TRUE,-12.8241,-69.3051,4,"""Madre De Dios""","""Tambopata""",1
"20","LOBOYOC","LOBOYOC","LAS PIEDRAS","LAS PIEDRAS",TRUE,TRUE,-12.4577,-69.1714,4,"""Madre De Dios""","""Tambopata""",1
"21","LOERO","LOERO","TAMBOPATA","TAMBOPATA",TRUE,TRUE,-12.6635,-69.1584,4,"""Madre De Dios""","""Tambopata""",1
"22","MALINOSQUI","MALINOSQUI","INAMBARI","INAMBARI",TRUE,TRUE,-13.014,-69.9938,3,"""Madre De Dios""","""Tambopata""",1
"23","MAMAJAPA","MAMAJAPAC","MANU","MANU",TRUE,FALSE,-12.5728,-71.2197,3,"""Madre De Dios""","""Manu""",2
"24","MAZUKO","MAZUKO","INAMBARI","INAMBARI",TRUE,TRUE,-13.1001,-70.3674,3,"""Madre De Dios""","""Tambopata""",1
"25","NUEVO SAN JUAN","NUEVO SAN JUAN","MADRE DE DIOS","MADRE DE DIOS",TRUE,TRUE,-12.6257,-70.2236,3,"""Madre De Dios""","""Manu""",1
"26","PIÑAL","PIÑAL","LAS PIEDRAS","LAS PIEDRAS",TRUE,FALSE,-12.0117,-69.0651,3,"""Madre De Dios""","""Tambopata""",2
"27","RESIDENTES CUZQUEÑOS","RESIDENTES CUZQUEÑOS","LABERINTO","LABERINTO",TRUE,FALSE,-12.7908,-69.5828,3,"""Madre De Dios""","""Tambopata""",2
"28","SAN FRANCISCO","SAN FRANCISCO","TAMBOPATA","TAMBOPATA",TRUE,TRUE,-12.5055,-68.8667,4,"""Madre De Dios""","""Tambopata""",1
"29","TRIUNFO (EL TRIUNFO)","RIMAC O PARQUE EL TRIUNFO","LAS PIEDRAS","LAS PIEDRAS",TRUE,FALSE,-12.5881,-69.1668,4,"""Madre De Dios""","""Tambopata""",2
"30","1 DE MAYO","1 DE MAYO","LAS PIEDRAS","LAS PIEDRAS",TRUE,TRUE,-12.2468,-69.1469,4,"""Madre De Dios""","""Tambopata""",1
"31","4 AMIGOS","4 AMIGOS","HUEPETUHE","HUEPETUHE",TRUE,TRUE,-13.0291,-70.5156,3,"""Madre De Dios""","""Manu""",1
"32","ABEJA","ABEJA","TAHUAMANU","TAHUAMANU",TRUE,TRUE,-11.4111,-69.3532,4,"""Madre De Dios""","""Tahuamanu""",1
"33","ADAN RAYO","ADAN RAYO","MANU","MANU",TRUE,TRUE,-12.7788,-71.3719,3,"""Madre De Dios""","""Manu""",1
"34","AGUAJALITO","AGUAJALITO","LAS PIEDRAS","LAS PIEDRAS",TRUE,TRUE,-12.5316,-69.0819,4,"""Madre De Dios""","""Tambopata""",1
"35","AGUAS BLANCAS","AGUAS BLANCAS","LABERINTO","LABERINTO",TRUE,TRUE,-12.7578,-69.5034,3,"""Madre De Dios""","""Tambopata""",1
"36","AGUAS NEGRAS","AGUAS NEGRAS","TAMBOPATA","TAMBOPATA",TRUE,TRUE,-12.6656,-69.4251,4,"""Madre De Dios""","""Tambopata""",1
"37","AGUAS NEGRAS","AGUAS NEGRAS","LAS PIEDRAS","LAS PIEDRAS",TRUE,TRUE,-12.2586,-69.2008,4,"""Madre De Dios""","""Tambopata""",1
"38","ALEGRIA","ALEGRIA","LAS PIEDRAS","LAS PIEDRAS",TRUE,TRUE,-12.1195,-69.1187,4,"""Madre De Dios""","""Tambopata""",1
"39","ALERTA","ALERTA","TAHUAMANU","TAHUAMANU",TRUE,TRUE,-11.6597,-69.2344,4,"""Madre De Dios""","""Tahuamanu""",1
"40","ALTA CACHUELA","ALTA CACHUELA","TAMBOPATA","TAMBOPATA",TRUE,TRUE,-12.4884,-69.1824,4,"""Madre De Dios""","""Tambopata""",1
"41","ALTA PASTORA","ALTA PASTORA","TAMBOPATA","TAMBOPATA",TRUE,TRUE,-12.5751,-69.2302,4,"""Madre De Dios""","""Tambopata""",1
"42","ALTO BELGICA","ALTO BELGICA","IÑAPARI","IÑAPARI",TRUE,TRUE,-10.9699,-69.75,4,"""Madre De Dios""","""Tahuamanu""",1
"43","ALTO CARBON","ALTO CARBON","MANU","MANU",TRUE,TRUE,-12.9015,-71.3219,3,"""Madre De Dios""","""Manu""",1
"44","ALTO CHORRILLOS","ALTO CHORRILLOS","TAMBOPATA","TAMBOPATA",TRUE,TRUE,-12.5869,-69.291,4,"""Madre De Dios""","""Tambopata""",1
"45","ALTO DOS DE MAYO","ALTO DOS DE MAYO","INAMBARI","INAMBARI",TRUE,TRUE,-13.079,-70.3261,4,"""Madre De Dios""","""Tambopata""",1
"46","ALTO HUACAMAYO","ALTO HUACAMAYO","INAMBARI","INAMBARI",TRUE,TRUE,-12.8084,-69.9373,4,"""Madre De Dios""","""Tambopata""",1
"47","ALTO LIBERTAD","ALTO LIBERTAD","INAMBARI","INAMBARI",TRUE,TRUE,-12.8989,-69.9454,3,"""Madre De Dios""","""Tambopata""",1
"48","ALTO LOBOYOC","ALTO LOBOYOC","LAS PIEDRAS","LAS PIEDRAS",TRUE,TRUE,-12.4577,-69.1714,4,"""Madre De Dios""","""Tambopata""",1
"49","ALTO LOERO","ALTO LOERO","TAMBOPATA","TAMBOPATA",TRUE,TRUE,-12.6683,-69.2134,4,"""Madre De Dios""","""Tambopata""",1
"50","ALTO PERU","ALTO PERU","TAHUAMANU","TAHUAMANU",TRUE,TRUE,-11.4574,-69.2591,4,"""Madre De Dios""","""Tahuamanu""",1
"51","ALTO PUKIRI","ALTO PUKIRI","HUEPETUHE","HUEPETUHE",TRUE,TRUE,-12.8537,-70.5449,4,"""Madre De Dios""","""Manu""",1
"52","AMARACAIRE","AMARACAIRE","LABERINTO","LABERINTO",TRUE,TRUE,-12.7248,-69.7452,3,"""Madre De Dios""","""Tambopata""",1
"53","AMAZONIA","AMAZONIA","MANU","MANU",TRUE,TRUE,-12.8534,-71.3856,3,"""Madre De Dios""","""Manu""",1
"54","ARAZAIRE","ARAZAIRE","INAMBARI","INAMBARI",TRUE,TRUE,-13.0013,-70.3424,3,"""Madre De Dios""","""Tambopata""",1
"55","ARROZAL","ARROZAL","IBERIA","IBERIA",TRUE,TRUE,-11.2829,-69.4815,4,"""Madre De Dios""","""Tahuamanu""",1
"56","AZUL","AZUL","INAMBARI","INAMBARI",TRUE,TRUE,-13.0353,-69.9259,3,"""Madre De Dios""","""Tambopata""",1
"57","BAJO ALEGRIA","BAJO ALEGRIA","LAS PIEDRAS","LAS PIEDRAS",TRUE,TRUE,-12.0324,-69.0488,4,"""Madre De Dios""","""Tambopata""",1
"58","BAJO COLORADO (PLAYA OCULTA)","BAJO COLORADO (PLAYA OCULTA)","MADRE DE DIOS","MADRE DE DIOS",TRUE,TRUE,-12.6246,-70.4499,3,"""Madre De Dios""","""Manu""",1
"59","BAJO MADRE DE DIOS","BAJO MADRE DE DIOS","LAS PIEDRAS","LAS PIEDRAS",TRUE,TRUE,-12.599,-69.1338,4,"""Madre De Dios""","""Tambopata""",1
"60","BAJO MADRE DE DIOS IZQUIERDA","BAJO MADRE DE DIOS IZQUIERDA","TAMBOPATA","TAMBOPATA",TRUE,TRUE,-12.6183,-69.1441,3,"""Madre De Dios""","""Tambopata""",1
"61","BAJO PIEDRAS","BAJO PIEDRAS","LAS PIEDRAS","LAS PIEDRAS",TRUE,TRUE,-12.465,-69.2573,4,"""Madre De Dios""","""Tambopata""",1
"62","BAJO PUKIRI (DELTA 3)","BAJO PUKIRI (DELTA 3)","MADRE DE DIOS","MADRE DE DIOS",TRUE,TRUE,-12.7816,-70.4993,3,"""Madre De Dios""","""Manu""",1
"63","BAJO TAMBOPATA","BAJO TAMBOPATA","TAMBOPATA","TAMBOPATA",TRUE,TRUE,-12.6516,-69.2202,4,"""Madre De Dios""","""Tambopata""",1
"64","BALTIMORI","BALTIMORI","TAMBOPATA","TAMBOPATA",TRUE,TRUE,-12.8314,-69.4464,4,"""Madre De Dios""","""Tambopata""",1
"65","BAMBERME","BAMBERME","HUEPETUHE","HUEPETUHE",TRUE,TRUE,-13.0075,-70.6585,3,"""Madre De Dios""","""Manu""",1
"66","BARRACA (PUERTO AZUL)","BARRACA (PUERTO AZUL)","FITZCARRALD","FITZCARRALD",TRUE,TRUE,-12.2978,-70.7709,4,"""Madre De Dios""","""Manu""",1
"67","BELGICA","BELGICA","IÑAPARI","IÑAPARI",TRUE,TRUE,-10.973,-69.7314,3,"""Madre De Dios""","""Tahuamanu""",1
"68","BELLO HORIZONTE","BELLO HORIZONTE","LAS PIEDRAS","LAS PIEDRAS",TRUE,TRUE,-12.4978,-69.1452,4,"""Madre De Dios""","""Tambopata""",1
"69","BELLO HORIZONTE","BELLO HORIZONTE","IBERIA","IBERIA",TRUE,TRUE,-11.3976,-69.4968,4,"""Madre De Dios""","""Tahuamanu""",1
"70","BOCA AMIGO","BOCA AMIGO","MADRE DE DIOS","MADRE DE DIOS",TRUE,TRUE,-12.5906,-70.0562,3,"""Madre De Dios""","""Manu""",1
"71","BOCA COLORADO","BOCA COLORADO","MADRE DE DIOS","MADRE DE DIOS",TRUE,TRUE,-12.6168,-70.3928,3,"""Madre De Dios""","""Manu""",1
"72","BOCA COLORADO","BOCA COLORADO","MADRE DE DIOS","MADRE DE DIOS",TRUE,TRUE,-12.692,-70.3983,4,"""Madre De Dios""","""Manu""",1
"73","BOCA COLORADO","BOCA COLORADO","MADRE DE DIOS","MADRE DE DIOS",TRUE,TRUE,-12.6168,-70.3928,3,"""Madre De Dios""","""Manu""",1
"74","BOCA COLORADO","BOCA COLORADO","MADRE DE DIOS","MADRE DE DIOS",TRUE,TRUE,-12.692,-70.3983,3,"""Madre De Dios""","""Manu""",1
"75","BOCA MANU","BOCA MANU","FITZCARRALD","FITZCARRALD",TRUE,TRUE,-12.2643,-70.9109,3,"""Madre De Dios""","""Manu""",1
"76","BOCA PARIAMANU","BOCA PARIAMANU","TAMBOPATA","TAMBOPATA",TRUE,TRUE,-12.4277,-69.2676,4,"""Madre De Dios""","""Tambopata""",1
"77","BOCA TOCABE","BOCA TOCABE","MADRE DE DIOS","MADRE DE DIOS",TRUE,TRUE,-12.7999,-70.522,3,"""Madre De Dios""","""Manu""",1
"78","BOCA UNION","BOCA UNION","LABERINTO","LABERINTO",TRUE,TRUE,-12.7089,-69.6847,3,"""Madre De Dios""","""Tambopata""",1
"79","BONANZA","BONANZA","MANU","MANU",TRUE,TRUE,-12.5862,-71.2338,3,"""Madre De Dios""","""Manu""",1
"80","BOTIJON","BOTIJON","LAS PIEDRAS","LAS PIEDRAS",TRUE,TRUE,-12.274,-69.0941,4,"""Madre De Dios""","""Tambopata""",1
"81","BUENA FORTUNA","BUENA FORTUNA","HUEPETUHE","HUEPETUHE",TRUE,TRUE,-13.0002,-70.5571,3,"""Madre De Dios""","""Manu""",1
"82","CABO DE HORNOS 1","CABO DE HORNOS 1","MANU","MANU",TRUE,TRUE,-12.7741,-71.3264,3,"""Madre De Dios""","""Manu""",1
"83","CACHUELA MARGEN IZQUIERDA","CACHUELA MARGEN IZQUIERDA","LAS PIEDRAS","LAS PIEDRAS",TRUE,TRUE,-12.5107,-69.1617,4,"""Madre De Dios""","""Tambopata""",1
"84","CACHUELA OVIEDO","CACHUELA OVIEDO","LAS PIEDRAS","LAS PIEDRAS",TRUE,TRUE,-12.5044,-69.1597,3,"""Madre De Dios""","""Tambopata""",1
"85","CAFETAL","CAFETAL","LAS PIEDRAS","LAS PIEDRAS",TRUE,TRUE,-11.9716,-69.1349,3,"""Madre De Dios""","""Tambopata""",1
"86","CARACHAMAYO","CARACHAMAYO","IBERIA","IBERIA",TRUE,TRUE,-11.3056,-69.4862,4,"""Madre De Dios""","""Tahuamanu""",1
"87","CARMEN ROSA","CARMEN ROSA","LAS PIEDRAS","LAS PIEDRAS",TRUE,TRUE,-12.12,-69.193,4,"""Madre De Dios""","""Tambopata""",1
"88","CASA MACHIGUENGA","CASA MACHIGUENGA","FITZCARRALD","FITZCARRALD",TRUE,TRUE,-11.5912,-72.0871,3,"""Madre De Dios""","""Manu""",1
"89","CAYCHIHUE BARRACA","CAYCHIHUE BARRACA","HUEPETUHE","HUEPETUHE",TRUE,TRUE,-13.0354,-70.4282,3,"""Madre De Dios""","""Manu""",1
"90","CAYCHIHUE BARRACA","CAYCHIHUE BARRACA","HUEPETUHE","HUEPETUHE",TRUE,TRUE,-13.0354,-70.4282,4,"""Madre De Dios""","""Manu""",1
"91","CENTRO CACHUELA","CENTRO CACHUELA","TAMBOPATA","TAMBOPATA",TRUE,TRUE,-12.5371,-69.1696,4,"""Madre De Dios""","""Tambopata""",1
"92","CENTRO PASTORA","CENTRO PASTORA","TAMBOPATA","TAMBOPATA",TRUE,TRUE,-12.6057,-69.2505,4,"""Madre De Dios""","""Tambopata""",1
"93","CHILINA VIEJA","CHILINA VIEJA","IBERIA","IBERIA",TRUE,TRUE,-11.2587,-69.592,3,"""Madre De Dios""","""Tahuamanu""",1
"94","CHONTA","CHONTA","TAMBOPATA","TAMBOPATA",TRUE,TRUE,-12.6688,-69.2281,4,"""Madre De Dios""","""Tambopata""",1
"95","CHOQUE","CHOQUE","HUEPETUHE","HUEPETUHE",TRUE,TRUE,-12.9817,-70.5916,3,"""Madre De Dios""","""Manu""",1
"96","CHORRERA","CHORRERA","LABERINTO","LABERINTO",TRUE,TRUE,-12.633,-69.4744,4,"""Madre De Dios""","""Tambopata""",1
"97","CHORRILLOS","CHORRILLOS","TAMBOPATA","TAMBOPATA",TRUE,TRUE,-12.606,-69.2852,4,"""Madre De Dios""","""Tambopata""",1
"98","CINCO ISLAS","CINCO ISLAS","LABERINTO","LABERINTO",TRUE,TRUE,-12.6523,-69.9639,3,"""Madre De Dios""","""Tambopata""",1
"99","COLPAC","COLPAC","LAS PIEDRAS","LAS PIEDRAS",TRUE,TRUE,-11.8961,-69.2487,4,"""Madre De Dios""","""Tambopata""",1
"100","COLPAYOC","COLPAYOC","LAS PIEDRAS","LAS PIEDRAS",TRUE,TRUE,-12.3438,-69.2359,4,"""Madre De Dios""","""Tambopata""",1
"101","CONDENADO","CONDENADO","TAMBOPATA","TAMBOPATA",TRUE,TRUE,-12.8638,-69.4106,4,"""Madre De Dios""","""Tambopata""",1
"102","DELTA 1","DELTA 1","MADRE DE DIOS","MADRE DE DIOS",TRUE,TRUE,-12.7748,-70.5217,3,"""Madre De Dios""","""Manu""",1
"103","DELTA 2","DELTA 2","MADRE DE DIOS","MADRE DE DIOS",TRUE,TRUE,-12.7989,-70.5275,3,"""Madre De Dios""","""Manu""",1
"104","DELTA 4","DELTA 4","MADRE DE DIOS","MADRE DE DIOS",TRUE,TRUE,-12.7374,-70.5149,3,"""Madre De Dios""","""Manu""",1
"105","DIAMANTE","DIAMANTE","TAMBOPATA","TAMBOPATA",TRUE,TRUE,-12.6256,-69.2116,4,"""Madre De Dios""","""Tambopata""",1
"106","DIAMANTE","DIAMANTE","FITZCARRALD","FITZCARRALD",TRUE,TRUE,-12.3224,-70.9434,3,"""Madre De Dios""","""Manu""",1
"107","DOS DE MAYO","DOS DE MAYO","INAMBARI","INAMBARI",TRUE,TRUE,-13.0686,-70.3544,3,"""Madre De Dios""","""Tambopata""",1
"108","EL PILAR","EL PILAR","TAMBOPATA","TAMBOPATA",TRUE,TRUE,-12.5692,-69.2707,4,"""Madre De Dios""","""Tambopata""",1
"109","EL PRADO","EL PRADO","TAMBOPATA","TAMBOPATA",TRUE,TRUE,-12.5426,-69.1943,4,"""Madre De Dios""","""Tambopata""",1
"110","EL PROGRESO","EL PROGRESO","INAMBARI","INAMBARI",TRUE,TRUE,-12.8696,-69.8465,3,"""Madre De Dios""","""Tambopata""",1
"111","FILADELFIA","FILADELFIA","LAS PIEDRAS","LAS PIEDRAS",TRUE,TRUE,-12.0648,-69.3328,4,"""Madre De Dios""","""Tambopata""",1
"112","FITZCARRALD","FITZCARRALD","TAMBOPATA","TAMBOPATA",TRUE,TRUE,-12.6692,-69.3487,4,"""Madre De Dios""","""Tambopata""",1
"113","FLOR DE ACRE","FLOR DE ACRE","IBERIA","IBERIA",TRUE,TRUE,-11.3601,-69.5638,4,"""Madre De Dios""","""Tahuamanu""",1
"114","FLORIDA ALTA","FLORIDA ALTA","LABERINTO","LABERINTO",TRUE,TRUE,-12.7826,-69.6047,4,"""Madre De Dios""","""Tambopata""",1
"115","FLORIDA BAJA","FLORIDA BAJA","LABERINTO","LABERINTO",TRUE,TRUE,-12.7617,-69.5681,3,"""Madre De Dios""","""Tambopata""",1
"116","FORTUNA ALTO LABERINTO","FORTUNA ALTO LABERINTO","LABERINTO","LABERINTO",TRUE,TRUE,-12.7012,-69.6365,3,"""Madre De Dios""","""Tambopata""",1
"117","FRAY MARTIN DE PORRAS","FRAY MARTIN DE PORRAS","LAS PIEDRAS","LAS PIEDRAS",TRUE,TRUE,-12.0236,-69.135,4,"""Madre De Dios""","""Tambopata""",1
"118","GAMITANA","GAMITANA","LAS PIEDRAS","LAS PIEDRAS",TRUE,TRUE,-12.4267,-69.0946,3,"""Madre De Dios""","""Tambopata""",1
"119","GAMITANA","GAMITANA","MANU","MANU",TRUE,TRUE,-12.8704,-71.3502,3,"""Madre De Dios""","""Manu""",1
"120","GLORIA","GLORIA","HUEPETUHE","HUEPETUHE",TRUE,TRUE,-13.014,-70.5384,3,"""Madre De Dios""","""Manu""",1
"121","GUACAMAYO","GUACAMAYO","MADRE DE DIOS","MADRE DE DIOS",TRUE,TRUE,-12.597,-70.253,3,"""Madre De Dios""","""Manu""",1
"122","GUADALUPE","GUADALUPE","HUEPETUHE","HUEPETUHE",TRUE,TRUE,-13.0397,-70.5241,3,"""Madre De Dios""","""Manu""",1
"123","HORACIO CEVALLOS","HORACIO CEVALLOS","LABERINTO","LABERINTO",TRUE,TRUE,-12.6786,-69.797,3,"""Madre De Dios""","""Tambopata""",1
"124","HUACAMAYO CHICO","HUACAMAYO CHICO","LABERINTO","LABERINTO",TRUE,TRUE,-12.7645,-69.8015,3,"""Madre De Dios""","""Tambopata""",1
"125","HUANTUPA","HUANTUPA","LABERINTO","LABERINTO",TRUE,TRUE,-12.7853,-69.5938,4,"""Madre De Dios""","""Tambopata""",1
"126","HUITOTO","HUITOTO","LABERINTO","LABERINTO",TRUE,TRUE,-12.5788,-70.0292,4,"""Madre De Dios""","""Tambopata""",1
"127","IBERIA","IBERIA","IBERIA","IBERIA",TRUE,TRUE,-11.35,-69.5833,4,"""Madre De Dios""","""Tahuamanu""",1
"128","INFIERNO","INFIERNO","TAMBOPATA","TAMBOPATA",TRUE,TRUE,-12.7299,-69.2284,4,"""Madre De Dios""","""Tambopata""",1
"129","ISHIRIWE","ISHIRIWE","MADRE DE DIOS","MADRE DE DIOS",TRUE,TRUE,-12.5614,-70.433,3,"""Madre De Dios""","""Manu""",1
"130","ISLA DE LOS VALLES","ISLA DE LOS VALLES","FITZCARRALD","FITZCARRALD",TRUE,TRUE,-12.2644,-70.9105,3,"""Madre De Dios""","""Manu""",1
"131","ISLA ROLIN","ISLA ROLIN","TAMBOPATA","TAMBOPATA",TRUE,TRUE,-12.5492,-69.048,4,"""Madre De Dios""","""Tambopata""",1
"132","ITAHUANIA","ITAHUANIA","MANU","MANU",TRUE,TRUE,-12.6313,-71.2282,4,"""Madre De Dios""","""Manu""",1
"133","IZUYAMA","IZUYAMA","TAMBOPATA","TAMBOPATA",TRUE,TRUE,-12.6306,-69.1861,4,"""Madre De Dios""","""Tambopata""",1
"134","JAYAVE","JAYAVE","INAMBARI","INAMBARI",TRUE,TRUE,-12.7809,-69.9632,3,"""Madre De Dios""","""Tambopata""",1
"135","JORGE CHAVEZ","JORGE CHAVEZ","TAMBOPATA","TAMBOPATA",TRUE,TRUE,-12.6685,-69.1192,4,"""Madre De Dios""","""Tambopata""",1
"136","JOSE OLAYA","JOSE OLAYA","MANU","MANU",TRUE,TRUE,-12.7025,-71.3637,3,"""Madre De Dios""","""Manu""",1
"137","KIMIRI","KIMIRI","HUEPETUHE","HUEPETUHE",TRUE,TRUE,-13.0955,-70.4271,3,"""Madre De Dios""","""Manu""",1
"138","KOTSIMBA","KOTSIMBA","INAMBARI","INAMBARI",TRUE,TRUE,-13.0899,-70.2419,3,"""Madre De Dios""","""Tambopata""",1
"139","LA DISTANCIA","LA DISTANCIA","INAMBARI","INAMBARI",TRUE,TRUE,-12.8819,-69.766,3,"""Madre De Dios""","""Tambopata""",1
"140","LA FLORIDA","LA FLORIDA","LAS PIEDRAS","LAS PIEDRAS",TRUE,TRUE,-11.9428,-69.1247,4,"""Madre De Dios""","""Tambopata""",1
"141","LA MERCED","LA MERCED","TAHUAMANU","TAHUAMANU",TRUE,TRUE,-11.3791,-69.3216,4,"""Madre De Dios""","""Tahuamanu""",1
"142","LA NOVIA","LA NOVIA","TAHUAMANU","TAHUAMANU",TRUE,TRUE,-11.7761,-69.305,4,"""Madre De Dios""","""Tahuamanu""",1
"143","LA PASTORA","LA PASTORA","TAMBOPATA","TAMBOPATA",TRUE,TRUE,-12.5774,-69.1907,4,"""Madre De Dios""","""Tambopata""",1
"144","LA REPUBLICA","LA REPUBLICA","IBERIA","IBERIA",TRUE,TRUE,-11.2596,-69.4929,4,"""Madre De Dios""","""Tahuamanu""",1
"145","LA TORRE","LA TORRE","TAMBOPATA","TAMBOPATA",TRUE,TRUE,-12.8241,-69.3051,4,"""Madre De Dios""","""Tambopata""",1
"146","LAGARTO (BASE NAVAL)","LAGARTO (BASE NAVAL)","LABERINTO","LABERINTO",TRUE,TRUE,-12.6523,-69.8308,3,"""Madre De Dios""","""Tambopata""",1
"147","LAGO INAMBARILLO","LAGO INAMBARILLO","LABERINTO","LABERINTO",TRUE,TRUE,-12.7225,-69.7874,3,"""Madre De Dios""","""Tambopata""",1
"148","LAGO SANDOVAL","LAGO SANDOVAL","TAMBOPATA","TAMBOPATA",TRUE,TRUE,-12.6119,-69.0462,4,"""Madre De Dios""","""Tambopata""",1
"149","LAGO VALENCIA","LAGO VALENCIA","LAS PIEDRAS","LAS PIEDRAS",TRUE,TRUE,-12.4087,-68.7597,4,"""Madre De Dios""","""Tambopata""",1
"150","LAS MERCEDES","LAS MERCEDES","LABERINTO","LABERINTO",TRUE,TRUE,-12.7053,-69.4466,4,"""Madre De Dios""","""Tambopata""",1
"151","LAS PIEDRAS (PLANCHON)","LAS PIEDRAS (PLANCHON)","LAS PIEDRAS","LAS PIEDRAS",TRUE,TRUE,-12.28,-69.1524,4,"""Madre De Dios""","""Tambopata""",1
"152","LIBERTAD","LIBERTAD","HUEPETUHE","HUEPETUHE",TRUE,TRUE,-12.9726,-70.6065,3,"""Madre De Dios""","""Manu""",1
"153","LLACTAPAMPA (PALOTOA)","LLACTAPAMPA (PALOTOA)","MANU","MANU",TRUE,TRUE,-12.6829,-71.3704,3,"""Madre De Dios""","""Manu""",1
"154","LOBOYOC","LOBOYOC","LAS PIEDRAS","LAS PIEDRAS",TRUE,TRUE,-12.4577,-69.1714,4,"""Madre De Dios""","""Tambopata""",1
"155","LOERO","LOERO","TAMBOPATA","TAMBOPATA",TRUE,TRUE,-12.6635,-69.1584,4,"""Madre De Dios""","""Tambopata""",1
"156","LORETO","LORETO","LAS PIEDRAS","LAS PIEDRAS",TRUE,TRUE,-12.0657,-69.4863,4,"""Madre De Dios""","""Tambopata""",1
"157","LOS AGUANOS","LOS AGUANOS","MANU","MANU",TRUE,TRUE,-12.7943,-71.3754,3,"""Madre De Dios""","""Manu""",1
"158","LOS ANGELES","LOS ANGELES","LAS PIEDRAS","LAS PIEDRAS",TRUE,TRUE,-12.3637,-69.0958,4,"""Madre De Dios""","""Tambopata""",1
"159","LOS CEDROS","LOS CEDROS","LABERINTO","LABERINTO",TRUE,TRUE,-12.7482,-69.4649,3,"""Madre De Dios""","""Tambopata""",1
"160","LUCERNA","LUCERNA","LAS PIEDRAS","LAS PIEDRAS",TRUE,TRUE,-12.0976,-69.4699,4,"""Madre De Dios""","""Tambopata""",1
"161","MADAMA","MADAMA","LAS PIEDRAS","LAS PIEDRAS",TRUE,TRUE,-12.5333,-69.0816,4,"""Madre De Dios""","""Tambopata""",1
"162","MAGUAY","MAGUAY","HUEPETUHE","HUEPETUHE",TRUE,TRUE,-13.0288,-70.544,3,"""Madre De Dios""","""Manu""",1
"163","MAIZAL","MAIZAL","FITZCARRALD","FITZCARRALD",TRUE,TRUE,-11.8124,-71.5492,3,"""Madre De Dios""","""Manu""",1
"164","MALINOSQUI","MALINOSQUI","INAMBARI","INAMBARI",TRUE,TRUE,-13.014,-69.9938,3,"""Madre De Dios""","""Tambopata""",1
"165","MALVINAS","MALVINAS","MADRE DE DIOS","MADRE DE DIOS",TRUE,TRUE,-12.6161,-70.1207,3,"""Madre De Dios""","""Manu""",1
"166","MANANTIALES","MANANTIALES","LABERINTO","LABERINTO",TRUE,TRUE,-12.7944,-69.6004,4,"""Madre De Dios""","""Tambopata""",1
"167","MANSILLA I (MANSILLA)","MANSILLA I (MANSILLA)","MANU","MANU",TRUE,TRUE,-12.7501,-71.3514,3,"""Madre De Dios""","""Manu""",1
"168","MANSILLA II (NUEVA MANSILLA)","MANSILLA II (NUEVA MANSILLA)","MANU","MANU",TRUE,TRUE,-12.7245,-71.3552,3,"""Madre De Dios""","""Manu""",1
"169","MARIA CRISTINA","MARIA CRISTINA","IBERIA","IBERIA",TRUE,TRUE,-11.3913,-69.5282,4,"""Madre De Dios""","""Tahuamanu""",1
"170","MAVILA","MAVILA","LAS PIEDRAS","LAS PIEDRAS",TRUE,TRUE,-11.9341,-69.119,4,"""Madre De Dios""","""Tambopata""",1
"171","MAZUKO","MAZUKO","INAMBARI","INAMBARI",TRUE,TRUE,-13.1001,-70.3674,3,"""Madre De Dios""","""Tambopata""",1
"172","MICAELA BASTIDAS","MICAELA BASTIDAS","LAS PIEDRAS","LAS PIEDRAS",TRUE,TRUE,-12.0035,-69.5397,4,"""Madre De Dios""","""Tambopata""",1
"173","MIRAFLORES","MIRAFLORES","LAS PIEDRAS","LAS PIEDRAS",TRUE,TRUE,-11.9071,-69.3345,4,"""Madre De Dios""","""Tambopata""",1
"174","MIRAFLORES","MIRAFLORES","IBERIA","IBERIA",TRUE,TRUE,-11.4409,-69.4199,4,"""Madre De Dios""","""Tahuamanu""",1
"175","MONTE SALVADO","MONTE SALVADO","TAMBOPATA","TAMBOPATA",TRUE,TRUE,-11.9413,-70.1108,4,"""Madre De Dios""","""Tambopata""",1
"176","MONTE SINAI (SINAI DE CHENTA)","MONTE SINAI (SINAI DE CHENTA)","TAMBOPATA","TAMBOPATA",TRUE,TRUE,-12.716,-69.3123,3,"""Madre De Dios""","""Tambopata""",1
"177","MONTERREY","MONTERREY","LAS PIEDRAS","LAS PIEDRAS",TRUE,TRUE,-12.2076,-69.1286,3,"""Madre De Dios""","""Tambopata""",1
"178","NOAYA","NOAYA","IÑAPARI","IÑAPARI",TRUE,TRUE,-11.1253,-69.5648,4,"""Madre De Dios""","""Tahuamanu""",1
"179","NUEVA","NUEVA","HUEPETUHE","HUEPETUHE",TRUE,TRUE,-13.0453,-70.5017,3,"""Madre De Dios""","""Manu""",1
"180","NUEVA ALIANZA","NUEVA ALIANZA","LAS PIEDRAS","LAS PIEDRAS",TRUE,TRUE,-12.4178,-69.1176,4,"""Madre De Dios""","""Tambopata""",1
"181","NUEVA ALIANZA","NUEVA ALIANZA","LABERINTO","LABERINTO",TRUE,TRUE,-12.6576,-69.7966,4,"""Madre De Dios""","""Tambopata""",1
"182","NUEVA ALIANZA","NUEVA ALIANZA","IBERIA","IBERIA",TRUE,TRUE,-11.35,-69.683,4,"""Madre De Dios""","""Tahuamanu""",1
"183","NUEVA AREQUIPA","NUEVA AREQUIPA","INAMBARI","INAMBARI",TRUE,TRUE,-12.8921,-69.9985,3,"""Madre De Dios""","""Tambopata""",1
"184","NUEVA ESPERANZA","NUEVA ESPERANZA","INAMBARI","INAMBARI",TRUE,TRUE,-12.9078,-70.3114,3,"""Madre De Dios""","""Tambopata""",1
"185","NUEVA ESPERANZA","NUEVA ESPERANZA","IÑAPARI","IÑAPARI",TRUE,TRUE,-11.0154,-69.6026,4,"""Madre De Dios""","""Tahuamanu""",1
"186","NUEVA VISTA","NUEVA VISTA","LAS PIEDRAS","LAS PIEDRAS",TRUE,TRUE,-11.9782,-69.2413,4,"""Madre De Dios""","""Tambopata""",1
"187","NUEVO EDEN","NUEVO EDEN","FITZCARRALD","FITZCARRALD",TRUE,TRUE,-12.3686,-71.0079,3,"""Madre De Dios""","""Manu""",1
"188","NUEVO PACARAN","NUEVO PACARAN","TAHUAMANU","TAHUAMANU",TRUE,TRUE,-11.8388,-69.1165,4,"""Madre De Dios""","""Tahuamanu""",1
"189","NUEVO SAN JUAN","NUEVO SAN JUAN","LAS PIEDRAS","LAS PIEDRAS",TRUE,TRUE,-11.9974,-69.0102,4,"""Madre De Dios""","""Tambopata""",1
"190","NUEVO SAN JUAN","NUEVO SAN JUAN","MADRE DE DIOS","MADRE DE DIOS",TRUE,TRUE,-12.6257,-70.2236,3,"""Madre De Dios""","""Manu""",1
"191","NUEVO SOL NACIENTE","NUEVO SOL NACIENTE","TAMBOPATA","TAMBOPATA",TRUE,TRUE,-12.6334,-69.1623,4,"""Madre De Dios""","""Tambopata""",1
"192","OTILIA","OTILIA","TAMBOPATA","TAMBOPATA",TRUE,TRUE,-12.5295,-69.2133,4,"""Madre De Dios""","""Tambopata""",1
"193","PACAHUARA","PACAHUARA","IBERIA","IBERIA",TRUE,TRUE,-11.2886,-69.7015,3,"""Madre De Dios""","""Tahuamanu""",1
"194","PACAL GUACAMAYO","PACAL GUACAMAYO","MADRE DE DIOS","MADRE DE DIOS",TRUE,TRUE,-12.6075,-70.2981,4,"""Madre De Dios""","""Manu""",1
"195","PACASMAYO","PACASMAYO","MANU","MANU",TRUE,TRUE,-12.8446,-71.3092,3,"""Madre De Dios""","""Manu""",1
"196","PADILLA","PADILLA","HUEPETUHE","HUEPETUHE",TRUE,TRUE,-13.0084,-70.5785,4,"""Madre De Dios""","""Manu""",1
"197","PADRE HERMOGENES","PADRE HERMOGENES","INAMBARI","INAMBARI",TRUE,TRUE,-12.8773,-69.7175,3,"""Madre De Dios""","""Tambopata""",1
"198","PALMA REAL","PALMA REAL","TAMBOPATA","TAMBOPATA",TRUE,TRUE,-12.5109,-68.7772,4,"""Madre De Dios""","""Tambopata""",1
"199","PALMERA","PALMERA","INAMBARI","INAMBARI",TRUE,TRUE,-13.1157,-70.3817,4,"""Madre De Dios""","""Tambopata""",1
"200","PALMICHAL","PALMICHAL","TAMBOPATA","TAMBOPATA",TRUE,TRUE,-12.5225,-69.4159,4,"""Madre De Dios""","""Tambopata""",1
"201","PALOTOA TEPARO","PALOTOA TEPARO","MANU","MANU",TRUE,TRUE,-12.6284,-71.3558,3,"""Madre De Dios""","""Manu""",1
"202","PAMPA ARIZONA","PAMPA ARIZONA","MANU","MANU",TRUE,TRUE,-12.852,-71.3625,3,"""Madre De Dios""","""Manu""",1
"203","PAMPA HERMOSA","PAMPA HERMOSA","LAS PIEDRAS","LAS PIEDRAS",TRUE,TRUE,-12.1858,-69.1172,4,"""Madre De Dios""","""Tambopata""",1
"204","PASTORA GRANDE","PASTORA GRANDE","LABERINTO","LABERINTO",TRUE,TRUE,-12.6036,-69.543,4,"""Madre De Dios""","""Tambopata""",1
"205","PEDRO ANTONIO","PEDRO ANTONIO","LABERINTO","LABERINTO",TRUE,TRUE,-12.6345,-69.549,3,"""Madre De Dios""","""Tambopata""",1
"206","PLAYA ALTA","PLAYA ALTA","TAMBOPATA","TAMBOPATA",TRUE,TRUE,-12.5132,-69.3586,4,"""Madre De Dios""","""Tambopata""",1
"207","PLAYA ALTA","PLAYA ALTA","TAMBOPATA","TAMBOPATA",TRUE,TRUE,-12.5132,-69.3586,4,"""Madre De Dios""","""Tambopata""",1
"208","PONAL","PONAL","INAMBARI","INAMBARI",TRUE,TRUE,-12.7954,-70.2096,3,"""Madre De Dios""","""Tambopata""",1
"209","PONALILLO","PONALILLO","IBERIA","IBERIA",TRUE,TRUE,-11.3518,-69.4778,4,"""Madre De Dios""","""Tahuamanu""",1
"210","PORTILLO","PORTILLO","IBERIA","IBERIA",TRUE,TRUE,-11.433,-69.5839,4,"""Madre De Dios""","""Tahuamanu""",1
"211","PRIMAVERA","PRIMAVERA","HUEPETUHE","HUEPETUHE",TRUE,TRUE,-13.0657,-70.5471,3,"""Madre De Dios""","""Manu""",1
"212","PRIMAVERA ALTA","PRIMAVERA ALTA","INAMBARI","INAMBARI",TRUE,TRUE,-12.9129,-70.1497,3,"""Madre De Dios""","""Tambopata""",1
"213","PRIMAVERA BAJA","PRIMAVERA BAJA","INAMBARI","INAMBARI",TRUE,TRUE,-12.9088,-70.1101,4,"""Madre De Dios""","""Tambopata""",1
"214","PROGRESO VERDE","PROGRESO VERDE","LABERINTO","LABERINTO",TRUE,TRUE,-12.7511,-69.5025,3,"""Madre De Dios""","""Tambopata""",1
"215","PUENTE INAMBARI","PUENTE INAMBARI","HUEPETUHE","HUEPETUHE",TRUE,TRUE,-13.1865,-70.3871,3,"""Madre De Dios""","""Manu""",1
"216","PUERTO ARTURO","PUERTO ARTURO","LAS PIEDRAS","LAS PIEDRAS",TRUE,TRUE,-12.4894,-69.2082,4,"""Madre De Dios""","""Tambopata""",1
"217","PUERTO CARLOS","PUERTO CARLOS","INAMBARI","INAMBARI",TRUE,TRUE,-12.9086,-70.336,4,"""Madre De Dios""","""Tambopata""",1
"218","PUERTO LUZ","PUERTO LUZ","MADRE DE DIOS","MADRE DE DIOS",TRUE,TRUE,-12.7455,-70.5961,3,"""Madre De Dios""","""Manu""",1
"219","PUERTO MALDONADO","PUERTO MALDONADO","TAMBOPATA","TAMBOPATA",TRUE,TRUE,-12.5933,-69.1891,4,"""Madre De Dios""","""Tambopata""",1
"220","PUERTO MAZUKO","PUERTO MAZUKO","INAMBARI","INAMBARI",TRUE,TRUE,-13.091,-70.3911,3,"""Madre De Dios""","""Tambopata""",1
"221","PUERTO NUEVO","PUERTO NUEVO","TAMBOPATA","TAMBOPATA",TRUE,TRUE,-12.6334,-69.1623,4,"""Madre De Dios""","""Tambopata""",1
"222","PUERTO PARDO","PUERTO PARDO","TAMBOPATA","TAMBOPATA",TRUE,TRUE,-12.5036,-68.6592,4,"""Madre De Dios""","""Tambopata""",1
"223","PUERTO PUNKIRI","PUERTO PUNKIRI","HUEPETUHE","HUEPETUHE",TRUE,TRUE,-13.0662,-70.3955,3,"""Madre De Dios""","""Manu""",1
"224","PUERTO ROSARIO DE LABERINTO","PUERTO ROSARIO DE LABERINTO","LABERINTO","LABERINTO",TRUE,TRUE,-12.7171,-69.5868,3,"""Madre De Dios""","""Tambopata""",1
"225","PUERTO UNION","PUERTO UNION","TAMBOPATA","TAMBOPATA",TRUE,TRUE,-12.5674,-69.3196,4,"""Madre De Dios""","""Tambopata""",1
"226","PUNKIRI CHICO","PUNKIRI CHICO","MADRE DE DIOS","MADRE DE DIOS",TRUE,TRUE,-12.9165,-70.3665,3,"""Madre De Dios""","""Manu""",1
"227","PUNO","PUNO","HUEPETUHE","HUEPETUHE",TRUE,TRUE,-13.0215,-70.5003,4,"""Madre De Dios""","""Manu""",1
"228","QUEBRADA SECA","QUEBRADA SECA","INAMBARI","INAMBARI",TRUE,TRUE,-13.0987,-70.345,3,"""Madre De Dios""","""Tambopata""",1
"229","RAMON GONZALES","RAMON GONZALES","LAS PIEDRAS","LAS PIEDRAS",TRUE,TRUE,-12.5964,-69.1402,3,"""Madre De Dios""","""Tambopata""",1
"230","ROMPEOLAS","ROMPEOLAS","TAMBOPATA","TAMBOPATA",TRUE,TRUE,-12.5748,-69.2001,3,"""Madre De Dios""","""Tambopata""",1
"231","SABALUYOC","SABALUYOC","TAMBOPATA","TAMBOPATA",TRUE,TRUE,-12.2285,-69.369,3,"""Madre De Dios""","""Tambopata""",1
"232","SACHABACAYOC","SACHABACAYOC","HUEPETUHE","HUEPETUHE",TRUE,TRUE,-13.1075,-70.4125,3,"""Madre De Dios""","""Manu""",1
"233","SACHAVACAYOC","SACHAVACAYOC","TAMBOPATA","TAMBOPATA",TRUE,TRUE,-12.8501,-69.3604,4,"""Madre De Dios""","""Tambopata""",1
"234","SALVACION","SALVACION","MANU","MANU",TRUE,TRUE,-12.8361,-71.3649,3,"""Madre De Dios""","""Manu""",1
"235","SAN ANTONIO ABAD","SAN ANTONIO ABAD","IBERIA","IBERIA",TRUE,TRUE,-11.3413,-69.5066,4,"""Madre De Dios""","""Tahuamanu""",1
"236","SAN BERNARDO","SAN BERNARDO","TAMBOPATA","TAMBOPATA",TRUE,TRUE,-12.6874,-69.3991,4,"""Madre De Dios""","""Tambopata""",1
"237","SAN CARLOS","SAN CARLOS","LAS PIEDRAS","LAS PIEDRAS",TRUE,TRUE,-12.0861,-69.2934,4,"""Madre De Dios""","""Tambopata""",1
"238","SAN FRANCISCO","SAN FRANCISCO","TAMBOPATA","TAMBOPATA",TRUE,TRUE,-12.5055,-68.8667,4,"""Madre De Dios""","""Tambopata""",1
"239","SAN FRANCISCO DE ASIS","SAN FRANCISCO DE ASIS","LAS PIEDRAS","LAS PIEDRAS",TRUE,TRUE,-12.344,-69.1628,4,"""Madre De Dios""","""Tambopata""",1
"240","SAN FRANCISCO DE ASIS","SAN FRANCISCO DE ASIS","IBERIA","IBERIA",TRUE,TRUE,-11.4133,-69.5659,4,"""Madre De Dios""","""Tahuamanu""",1
"241","SAN ISIDRO","SAN ISIDRO","LAS PIEDRAS","LAS PIEDRAS",TRUE,TRUE,-12.5268,-69.1312,3,"""Madre De Dios""","""Tambopata""",1
"242","SAN ISIDRO DE CHILINA","SAN ISIDRO DE CHILINA","IÑAPARI","IÑAPARI",TRUE,TRUE,-11.1989,-69.5577,4,"""Madre De Dios""","""Tahuamanu""",1
"243","SAN JACINTO","SAN JACINTO","TAMBOPATA","TAMBOPATA",TRUE,TRUE,-12.5771,-69.3913,4,"""Madre De Dios""","""Tambopata""",1
"244","SAN JOSE DE CENTRO PIEDRAS","SAN JOSE DE CENTRO PIEDRAS","LAS PIEDRAS","LAS PIEDRAS",TRUE,TRUE,-12.4178,-69.2531,4,"""Madre De Dios""","""Tambopata""",1
"245","SAN JOSE DE KARENE","SAN JOSE DE KARENE","MADRE DE DIOS","MADRE DE DIOS",TRUE,TRUE,-12.6882,-70.5212,3,"""Madre De Dios""","""Manu""",1
"246","SAN JUAN","SAN JUAN","LABERINTO","LABERINTO",TRUE,TRUE,-12.8296,-69.6637,3,"""Madre De Dios""","""Tambopata""",1
"247","SAN JUAN CHICO","SAN JUAN CHICO","MADRE DE DIOS","MADRE DE DIOS",TRUE,TRUE,-12.5753,-70.1508,3,"""Madre De Dios""","""Manu""",1
"248","SAN JUAN DE APOCENTO","SAN JUAN DE APOCENTO","LAS PIEDRAS","LAS PIEDRAS",TRUE,TRUE,-11.9177,-68.9768,3,"""Madre De Dios""","""Tambopata""",1
"249","SAN JUAN GRANDE","SAN JUAN GRANDE","MADRE DE DIOS","MADRE DE DIOS",TRUE,TRUE,-12.6011,-70.2163,3,"""Madre De Dios""","""Manu""",1
"250","SAN LORENZO","SAN LORENZO","TAHUAMANU","TAHUAMANU",TRUE,TRUE,-11.4667,-69.3,4,"""Madre De Dios""","""Tahuamanu""",1
"251","SAN PEDRO","SAN PEDRO","TAHUAMANU","TAHUAMANU",TRUE,TRUE,-11.4601,-69.2701,4,"""Madre De Dios""","""Tahuamanu""",1
"252","SANTA CRUZ","SANTA CRUZ","MANU","MANU",TRUE,TRUE,-12.6666,-71.3432,3,"""Madre De Dios""","""Manu""",1
"253","SANTA ELENA","SANTA ELENA","MANU","MANU",TRUE,TRUE,-12.7316,-71.3859,4,"""Madre De Dios""","""Manu""",1
"254","SANTA INES","SANTA INES","HUEPETUHE","HUEPETUHE",TRUE,TRUE,-13.0135,-70.4691,3,"""Madre De Dios""","""Manu""",1
"255","SANTA JULIA","SANTA JULIA","LAS PIEDRAS","LAS PIEDRAS",TRUE,TRUE,-12.0364,-68.9442,4,"""Madre De Dios""","""Tambopata""",1
"256","SANTA MARIA","SANTA MARIA","TAHUAMANU","TAHUAMANU",TRUE,TRUE,-11.8944,-69.0063,4,"""Madre De Dios""","""Tahuamanu""",1
"257","SANTA RITA ALTA","SANTA RITA ALTA","INAMBARI","INAMBARI",TRUE,TRUE,-12.9145,-70.2456,4,"""Madre De Dios""","""Tambopata""",1
"258","SANTA RITA BAJA","SANTA RITA BAJA","INAMBARI","INAMBARI",TRUE,TRUE,-12.914,-70.1928,4,"""Madre De Dios""","""Tambopata""",1
"259","SANTA ROSA","SANTA ROSA","INAMBARI","INAMBARI",TRUE,TRUE,-12.9258,-70.303,3,"""Madre De Dios""","""Tambopata""",1
"260","SANTA ROSA","SANTA ROSA","LAS PIEDRAS","LAS PIEDRAS",TRUE,TRUE,-12.0126,-69.1345,3,"""Madre De Dios""","""Tambopata""",1
"261","SANTA TERESA","SANTA TERESA","LAS PIEDRAS","LAS PIEDRAS",TRUE,TRUE,-12.2296,-69.0629,4,"""Madre De Dios""","""Tambopata""",1
"262","SANTO DOMINGO","SANTO DOMINGO","LABERINTO","LABERINTO",TRUE,TRUE,-12.763,-69.5687,3,"""Madre De Dios""","""Tambopata""",1
"263","SARAYACU","SARAYACU","INAMBARI","INAMBARI",TRUE,TRUE,-12.7959,-70.0375,3,"""Madre De Dios""","""Tambopata""",1
"264","SECA","SECA","HUEPETUHE","HUEPETUHE",TRUE,TRUE,-13.0075,-70.4188,4,"""Madre De Dios""","""Manu""",1
"265","SETAPO","SETAPO","MADRE DE DIOS","MADRE DE DIOS",TRUE,TRUE,-12.9597,-70.672,3,"""Madre De Dios""","""Manu""",1
"266","SHINTUYA","SHINTUYA","MANU","MANU",TRUE,TRUE,-12.6673,-71.2965,3,"""Madre De Dios""","""Manu""",1
"267","SHIPETIARI","SHIPETIARI","MANU","MANU",TRUE,TRUE,-12.4154,-71.1165,4,"""Madre De Dios""","""Manu""",1
"268","SHIRINGAYOC","SHIRINGAYOC","TAHUAMANU","TAHUAMANU",TRUE,TRUE,-11.9032,-69.0858,4,"""Madre De Dios""","""Tahuamanu""",1
"269","SOL NACIENTE","SOL NACIENTE","INAMBARI","INAMBARI",TRUE,TRUE,-12.9141,-69.9241,3,"""Madre De Dios""","""Tambopata""",1
"270","SONENE","SONENE","TAMBOPATA","TAMBOPATA",TRUE,TRUE,-12.5711,-68.7015,4,"""Madre De Dios""","""Tambopata""",1
"271","SUDADERO","SUDADERO","LAS PIEDRAS","LAS PIEDRAS",TRUE,TRUE,-12.3808,-69.1439,4,"""Madre De Dios""","""Tambopata""",1
"272","TAHUANTISUYO","TAHUANTISUYO","LABERINTO","LABERINTO",TRUE,TRUE,-12.7331,-69.5188,3,"""Madre De Dios""","""Tambopata""",1
"273","TAYACOME","TAYACOME","FITZCARRALD","FITZCARRALD",TRUE,TRUE,-11.7224,-71.6492,3,"""Madre De Dios""","""Manu""",1
"274","TAZON","TAZON","INAMBARI","INAMBARI",TRUE,TRUE,-13.1169,-70.3837,3,"""Madre De Dios""","""Tambopata""",1
"275","TENIENTE ACEVEDO","TENIENTE ACEVEDO","TAMBOPATA","TAMBOPATA",TRUE,TRUE,-12.6411,-69.3605,4,"""Madre De Dios""","""Tambopata""",1
"276","TEPARO GRANDE","TEPARO GRANDE","MANU","MANU",TRUE,TRUE,-12.725,-71.3909,3,"""Madre De Dios""","""Manu""",1
"277","TIGRIMAYO","TIGRIMAYO","HUEPETUHE","HUEPETUHE",TRUE,TRUE,-12.9847,-70.5795,4,"""Madre De Dios""","""Manu""",1
"278","TIPISCA","TIPISCA","TAMBOPATA","TAMBOPATA",TRUE,TRUE,-12.18,-69.42,4,"""Madre De Dios""","""Tambopata""",1
"279","TORMENTA","TORMENTA","LAS PIEDRAS","LAS PIEDRAS",TRUE,TRUE,-12.517,-69.1068,4,"""Madre De Dios""","""Tambopata""",1
"280","TRANQUERA (BARRANCO CHICO)","TRANQUERA (BARRANCO CHICO)","HUEPETUHE","HUEPETUHE",TRUE,TRUE,-12.9326,-70.6008,3,"""Madre De Dios""","""Manu""",1
"281","TRES ESTRELLAS","TRES ESTRELLAS","TAMBOPATA","TAMBOPATA",TRUE,TRUE,-12.6722,-69.3152,4,"""Madre De Dios""","""Tambopata""",1
"282","TRES ISLAS","TRES ISLAS","TAMBOPATA","TAMBOPATA",TRUE,TRUE,-12.5477,-69.3714,4,"""Madre De Dios""","""Tambopata""",1
"283","TROPEZON","TROPEZON","IBERIA","IBERIA",TRUE,TRUE,-11.3495,-69.4794,4,"""Madre De Dios""","""Tahuamanu""",1
"284","TUPAC AMARU","TUPAC AMARU","TAMBOPATA","TAMBOPATA",TRUE,TRUE,-12.594,-69.3269,4,"""Madre De Dios""","""Tambopata""",1
"285","UNION","UNION","TAHUAMANU","TAHUAMANU",TRUE,TRUE,-11.3582,-69.3417,4,"""Madre De Dios""","""Tahuamanu""",1
"286","UNION PROGRESO","UNION PROGRESO","INAMBARI","INAMBARI",TRUE,TRUE,-12.8758,-69.807,4,"""Madre De Dios""","""Tambopata""",1
"287","VARSOVIA","VARSOVIA","LAS PIEDRAS","LAS PIEDRAS",TRUE,TRUE,-12.1288,-69.295,4,"""Madre De Dios""","""Tambopata""",1
"288","VICTOR RAUL HAYA DE LA TORRE","VICTOR RAUL HAYA DE LA TORRE","LABERINTO","LABERINTO",TRUE,TRUE,-12.7183,-69.4869,4,"""Madre De Dios""","""Tambopata""",1
"289","VILLA PRIMAVERA","VILLA PRIMAVERA","IÑAPARI","IÑAPARI",TRUE,TRUE,-11.0417,-69.5732,4,"""Madre De Dios""","""Tahuamanu""",1
"290","VILLA ROCIO","VILLA ROCIO","TAHUAMANU","TAHUAMANU",TRUE,TRUE,-11.7817,-69.186,4,"""Madre De Dios""","""Tahuamanu""",1
"291","VILLA SANTIAGO (ARAZAIRE)","VILLA SANTIAGO (ARAZAIRE)","INAMBARI","INAMBARI",TRUE,TRUE,-13.0072,-70.3449,3,"""Madre De Dios""","""Tambopata""",1
"292","VIRGEN DE LA CANDELARIA","VIRGEN DE LA CANDELARIA","INAMBARI","INAMBARI",TRUE,TRUE,-12.896,-70.0555,3,"""Madre De Dios""","""Tambopata""",1
"293","VIRGEN DEL CARMEN","VIRGEN DEL CARMEN","LAS PIEDRAS","LAS PIEDRAS",TRUE,TRUE,-12.1099,-69.0234,3,"""Madre De Dios""","""Tambopata""",1
"294","VIRGENES DEL SOL","VIRGENES DEL SOL","LABERINTO","LABERINTO",TRUE,TRUE,-12.8242,-69.6625,4,"""Madre De Dios""","""Tambopata""",1
"295","YOMIBATO","YOMIBATO","FITZCARRALD","FITZCARRALD",TRUE,TRUE,-11.7608,-71.8738,3,"""Madre De Dios""","""Manu""",1
"296","YUNGUYO","YUNGUYO","MANU","MANU",TRUE,TRUE,-12.8126,-71.3591,3,"""Madre De Dios""","""Manu""",1
